*******************************************************************************
 Revised: Jan 23, 2020            Calypso  / (Saturn)                       614
                          http://ssd.jpl.nasa.gov/?sat_phys_par
                            http://ssd.jpl.nasa.gov/?sat_elem

 SATELLITE PHYSICAL PROPERTIES:
  Radius (km)            = 15 x 8 x 8       Density (g cm^-3)   =  1.0
  Mass (10^22 g)         = 0.0003597        Geometric Albedo    =  0.7 
  GM (km^3/s^2)          = 0.00024          V(1,0)              = +9.4 

 SATELLITE ORBITAL DATA (mean values with respect to local Laplace plane):
  Semi-major axis, a (km) = 294.710(10^3)   Orbital period      = 1.887802 d
  Eccentricity, e         = 0.0005          Rotational period   = 
  Inclination, i  (deg)   = 1.499   

 NOTE: The IAU rotational spin-pole model (defining latitude and logitude) is 
       valid only near the time of the 1981 Voyager 1 & 2 flybys; an updated
       Cassini-based coordinate grid model is not yet published by the IAU.

      Trajectory is valid only for the interval spanned by Cassini data.
*******************************************************************************
 
 
*******************************************************************************
Ephemeris / WWW_USER Wed Jun 17 13:28:05 2020 Pasadena, USA      / Horizons
*******************************************************************************
Target body name: Calypso (614)                   {source: sat427l_merged_DE438}
Center body name: Solar System Barycenter (0)     {source: DE431mx}
Center-site name: BODY CENTER
*******************************************************************************
Start time      : A.D. 2000-Jun-05 00:00:00.0000 TDB
Stop  time      : A.D. 2040-May-26 00:00:00.0000 TDB
Step-size       : 14400 minutes
*******************************************************************************
Center geodetic : 0.00000000,0.00000000,0.0000000 {E-lon(deg),Lat(deg),Alt(km)}
Center cylindric: 0.00000000,0.00000000,0.0000000 {E-lon(deg),Dxy(km),Dz(km)}
Center radii    : (undefined)                                                  
Output units    : AU-D
Output type     : GEOMETRIC cartesian states
Output format   : 3 (position, velocity, LT, range, range-rate)
Reference frame : Ecliptic of J2000.0
*******************************************************************************
JDTDB
   X     Y     Z
   VX    VY    VZ
   LT    RG    RR
*******************************************************************************
$$SOE
2458180.500000000 = A.D. 2018-Mar-03 00:00:00.0000 TDB 
 X = 3.682930553930083E-01 Y =-1.005242391280212E+01 Z = 1.609038373489389E-01
 VX= 1.061782652506102E-02 VY=-3.296107437797660E-03 VZ= 1.273651564076597E-03
 LT= 5.810434271575462E-02 RG= 1.006045507629750E+01 RR= 3.702543885046980E-03
2458190.500000000 = A.D. 2018-Mar-13 00:00:00.0000 TDB 
 X = 4.239643538507212E-01 Y =-1.004964602418079E+01 Z = 1.581045422592594E-01
 VX= 7.326555288405103E-03 VY= 5.591101102302941E-03 VZ=-3.357029808564698E-03
 LT= 5.810071776451113E-02 RG= 1.005982743544599E+01 RR=-5.329430419161884E-03
2458200.500000000 = A.D. 2018-Mar-23 00:00:00.0000 TDB 
 X = 4.748212581621131E-01 Y =-1.004500641221694E+01 Z = 1.548272458585630E-01
 VX=-1.269387813037692E-03 VY= 6.351907912255294E-04 VZ= 1.172765696419369E-04
 LT= 5.808678011753906E-02 RG= 1.005741420668067E+01 RR=-6.925309167853334E-04
2458210.500000000 = A.D. 2018-Apr-02 00:00:00.0000 TDB 
 X = 5.255255247400554E-01 Y =-1.004451208277973E+01 Z = 1.540171484614480E-01
 VX= 6.971404911974614E-03 VY=-5.318735715048336E-03 VZ= 2.741519763034412E-03
 LT= 5.809841933028224E-02 RG= 1.005942947389570E+01 RR= 5.717023772078540E-03
2458220.500000000 = A.D. 2018-Apr-12 00:00:00.0000 TDB 
 X = 5.810943548929133E-01 Y =-1.004273742338748E+01 Z = 1.522427092876762E-01
 VX= 1.081424797918861E-02 VY= 3.133013861428509E-03 VZ=-2.259583370374537E-03
 LT= 5.810568234890099E-02 RG= 1.006068702658655E+01 RR=-2.536997933417307E-03
2458230.500000000 = A.D. 2018-Apr-22 00:00:00.0000 TDB 
 X = 6.339739932431037E-01 Y =-1.003680469933722E+01 Z = 1.485439106986353E-01
 VX= 3.441570527263033E-04 VY= 4.293720323355747E-03 VZ=-1.988838703292342E-03
 LT= 5.808961008114968E-02 RG= 1.005790419969051E+01 RR=-4.292392800693142E-03
2458240.500000000 = A.D. 2018-May-02 00:00:00.0000 TDB 
 X = 6.834921442613151E-01 Y =-1.003380046021870E+01 Z = 1.469198001302122E-01
 VX= 2.555891654366830E-03 VY=-4.751551930643617E-03 VZ= 2.862771191530115E-03
 LT= 5.809089108789196E-02 RG= 1.005812599913235E+01 RR= 4.955560667202375E-03
2458250.500000000 = A.D. 2018-May-12 00:00:00.0000 TDB 
 X = 7.375988873074987E-01 Y =-1.003250584985959E+01 Z = 1.460030217646540E-01
 VX= 1.173545749208887E-02 VY=-6.136902143500264E-04 VZ=-2.307556815029383E-04
 LT= 5.810542952348909E-02 RG= 1.006064325122348E+01 RR= 1.469013427654472E-03
2458260.500000000 = A.D. 2018-May-22 00:00:00.0000 TDB 
 X = 7.923610661924472E-01 Y =-1.002654730826125E+01 Z = 1.425870888170059E-01
 VX= 4.200743820798124E-03 VY= 6.118126520692575E-03 VZ=-3.292631395921734E-03
 LT= 5.809488732233310E-02 RG= 1.005881792567675E+01 RR=-5.814268267149306E-03
2458270.500000000 = A.D. 2018-Jun-01 00:00:00.0000 TDB 
 X = 8.420906248489715E-01 Y =-1.002082425252938E+01 Z = 1.399084070277532E-01
 VX=-6.103477018636356E-04 VY=-1.851839818264098E-03 VZ= 1.595493260931935E-03
 LT= 5.808506569995937E-02 RG= 1.005711736447858E+01 RR= 1.816247692415243E-03
2458280.500000000 = A.D. 2018-Jun-11 00:00:00.0000 TDB 
 X = 8.940350352782979E-01 Y =-1.001887580931446E+01 Z = 1.392906248004937E-01
 VX= 9.710502238494229E-03 VY=-3.877721401639277E-03 VZ= 1.801114049417371E-03
 LT= 5.809969725504333E-02 RG= 1.005965073970905E+01 RR= 4.749947875443752E-03
2458290.500000000 = A.D. 2018-Jun-21 00:00:00.0000 TDB 
 X = 9.496579461686900E-01 Y =-1.001375228043632E+01 Z = 1.367209225646666E-01
 VX= 8.513553515503368E-03 VY= 5.342953767833879E-03 VZ=-3.214833882140592E-03
 LT= 5.809946891114885E-02 RG= 1.005961120318931E+01 RR=-4.558584408361811E-03
2458300.500000000 = A.D. 2018-Jul-01 00:00:00.0000 TDB 
 X = 1.000851626618156E+00 Y =-1.000594131293504E+01 Z = 1.332171234964086E-01
 VX=-1.123709921233503E-03 VY= 2.073597894757041E-03 VZ=-4.784370900934725E-04
 LT= 5.808297033278786E-02 RG= 1.005675456289935E+01 RR=-2.181290357619110E-03
2458310.500000000 = A.D. 2018-Jul-11 00:00:00.0000 TDB 
 X = 1.050884465632692E+00 Y =-1.000212482112341E+01 Z = 1.322081508079890E-01
 VX= 5.699691034474647E-03 VY=-5.160764459362191E-03 VZ= 2.931948327199034E-03
 LT= 5.809044304929821E-02 RG= 1.005804842365462E+01 RR= 5.766124011910853E-03
2458320.500000000 = A.D. 2018-Jul-21 00:00:00.0000 TDB 
 X = 1.105944933521851E+00 Y =-9.997913626789181E+00 Z = 1.306584630002574E-01
 VX= 1.133721228512148E-02 VY= 2.403407004521462E-03 VZ=-1.811322831916299E-03
 LT= 5.810023972046794E-02 RG= 1.005974466468573E+01 RR=-1.165773904045280E-03
2458330.500000000 = A.D. 2018-Jul-31 00:00:00.0000 TDB 
 X = 1.159146411934225E+00 Y =-9.989180358726552E+00 Z = 1.269162649923153E-01
 VX= 1.197203087493404E-03 VY= 5.293745851711300E-03 VZ=-2.433559475052760E-03
 LT= 5.808444625812107E-02 RG= 1.005701011144902E+01 RR=-5.150766095285043E-03
2458340.500000000 = A.D. 2018-Aug-10 00:00:00.0000 TDB 
 X = 1.208325227927131E+00 Y =-9.982744296455801E+00 Z = 1.250020897800409E-01
 VX= 1.509480592582677E-03 VY=-3.893447509646345E-03 VZ= 2.681277045751961E-03
 LT= 5.808083011465951E-02 RG= 1.005638399561768E+01 RR= 4.079637338175698E-03
2458350.500000000 = A.D. 2018-Aug-20 00:00:00.0000 TDB 
 X = 1.261635658185360E+00 Y =-9.978729312071422E+00 Z = 1.241916231544562E-01
 VX= 1.145074319322044E-02 VY=-1.317211138751894E-03 VZ= 2.804449729399110E-04
 LT= 5.809556734639829E-02 RG= 1.005893566819373E+01 RR= 2.746372892063273E-03
2458360.500000000 = A.D. 2018-Aug-30 00:00:00.0000 TDB 
 X = 1.316452420511233E+00 Y =-9.970241876623053E+00 Z = 1.208883128504062E-01
 VX= 5.280755506677465E-03 VY= 6.436474092168415E-03 VZ=-3.419920312290281E-03
 LT= 5.808729795330497E-02 RG= 1.005750386716414E+01 RR=-5.730524126114986E-03
2458370.500000000 = A.D. 2018-Sep-09 00:00:00.0000 TDB 
 X = 1.366149208089099E+00 Y =-9.961215064658560E+00 Z = 1.179499836855379E-01
 VX=-1.034880310747628E-03 VY=-6.355165481496231E-04 VZ= 1.178215499566155E-03
 LT= 5.807371460910785E-02 RG= 1.005515198402265E+01 RR= 5.027956418021508E-04
2458380.500000000 = A.D. 2018-Sep-19 00:00:00.0000 TDB 
 X = 1.417260647366067E+00 Y =-9.956225524268744E+00 Z = 1.172786279460998E-01
 VX= 8.852540549123556E-03 VY=-4.142574226607979E-03 VZ= 2.147425771701324E-03
 LT= 5.808598424791726E-02 RG= 1.005727640612735E+01 RR= 5.373483393159349E-03
2458390.500000000 = A.D. 2018-Sep-29 00:00:00.0000 TDB 
 X = 1.472556709935905E+00 Y =-9.948645425605152E+00 Z = 1.148874506581632E-01
 VX= 9.316824590906410E-03 VY= 5.073932424196376E-03 VZ=-3.027830565224282E-03
 LT= 5.808838446851852E-02 RG= 1.005769199144169E+01 RR=-3.689421171518729E-03
2458400.500000000 = A.D. 2018-Oct-09 00:00:00.0000 TDB 
 X = 1.523850988464438E+00 Y =-9.937805773990826E+00 Z = 1.112427494311366E-01
 VX=-8.621112423905137E-04 VY= 3.211363853551974E-03 VZ=-9.189866188750057E-04
 LT= 5.807038278888266E-02 RG= 1.005457509723362E+01 RR=-3.314895914641055E-03
2458410.500000000 = A.D. 2018-Oct-19 00:00:00.0000 TDB 
 X = 1.573219900972659E+00 Y =-9.930732781520662E+00 Z = 1.100546989968507E-01
 VX= 4.698124236917891E-03 VY=-4.830133018883572E-03 VZ= 2.998607864161972E-03
 LT= 5.807385965517591E-02 RG= 1.005517709797082E+01 RR= 5.538236989742497E-03
